{"type": "FeatureCollection", "features": [ {"type": "Feature", "properties": {"norad_id": 28659, "name": "DIRECTV 8", "group": "intelsat", "lat": 0.041098118099816235, "lon": 89.36098637029234, "alt_km": 35798.241288174344, "timestamp": "2025-12-23T07:45:09.064155+00:00", "meta": {"OBJECT_NAME": "DIRECTV 8", "OBJECT_ID": "2005-019A", "EPOCH": "2025-12-22T21:09:31.000320", "MEAN_MOTION": 1.00271524, "ECCENTRICITY": 0.00029245, "INCLINATION": 0.0181, "RA_OF_ASC_NODE": 18.4024, "ARG_OF_PERICENTER": 263.1502, "MEAN_ANOMALY": 8.4647, "EPHEMERIS_TYPE": 0, "CLASSIFICATION_TYPE": "U", "NORAD_CAT_ID": 28659, "ELEMENT_SET_NO": 999, "REV_AT_EPOCH": 7530, "BSTAR": 0, "MEAN_MOTION_DOT": 2.2e-07, "MEAN_MOTION_DDOT": 0}, "tle": {"line1": "1 28659U 05019A   25356.88160880  .00000022  00000+0  00000+0 0  9997", "line2": "2 28659   0.0181  18.4024 0002924 263.1502   8.4647  1.00271524 75303"}}, "geometry": {"type": "Point", "coordinates": [89.36098637029234, 0.041098118099816235]}}, {"type": "Feature", "properties": {"norad_id": 28702, "name": "GALAXY 28 (G-28)", "group": "intelsat", "lat": 1.7961328138690886, "lon": 119.65596268330762, "alt_km": 35797.57647798343, "timestamp": "2025-12-23T07:45:09.064167+00:00", "meta": {"OBJECT_NAME": "GALAXY 28 (G-28)", "OBJECT_ID": "2005-022A", "EPOCH": "2025-12-20T00:49:30.482112", "MEAN_MOTION": 1.00271047, "ECCENTRICITY": 0.00029384, "INCLINATION": 2.8382, "RA_OF_ASC_NODE": 81.1982, "ARG_OF_PERICENTER": 194.0723, "MEAN_ANOMALY": 97.2981, "EPHEMERIS_TYPE": 0, "CLASSIFICATION_TYPE": "U", "NORAD_CAT_ID": 28702, "ELEMENT_SET_NO": 999, "REV_AT_EPOCH": 5017, "BSTAR": 0, "MEAN_MOTION_DOT": -1.65e-06, "MEAN_MOTION_DDOT": 0}, "tle": {"line1": "1 28702U 05022A   25354.03438058 -.00000165  00000+0  00000+0 0  9999", "line2": "2 28702   2.8382  81.1982 0002938 194.0723  97.2981  1.00271047 50172"}}, "geometry": {"type": "Point", "coordinates": [119.65596268330762, 1.7961328138690886]}}, {"type": "Feature", "properties": {"norad_id": 29236, "name": "GALAXY 16 (G-16)", "group": "intelsat", "lat": -0.003219996270833682, "lon": 109.3757962502815, "alt_km": 35796.66358912729, "timestamp": "2025-12-23T07:45:09.064179+00:00", "meta": {"OBJECT_NAME": "GALAXY 16 (G-16)", "OBJECT_ID": "2006-023A", "EPOCH": "2025-12-22T19:32:17.808864", "MEAN_MOTION": 1.00270734, "ECCENTRICITY": 0.00025149, "INCLINATION": 0.0081, "RA_OF_ASC_NODE": 128.8096, "ARG_OF_PERICENTER": 145.2151, "MEAN_ANOMALY": 11.6522, "EPHEMERIS_TYPE": 0, "CLASSIFICATION_TYPE": "U", "NORAD_CAT_ID": 29236, "ELEMENT_SET_NO": 999, "REV_AT_EPOCH": 7120, "BSTAR": 0, "MEAN_MOTION_DOT": -1.05e-06, "MEAN_MOTION_DDOT": 0}, "tle": {"line1": "1 29236U 06023A   25356.81409501 -.00000105  00000+0  00000+0 0  9997", "line2": "2 29236   0.0081 128.8096 0002514 145.2151  11.6522  1.00270734 71209"}}, "geometry": {"type": "Point", "coordinates": [109.3757962502815, -0.003219996270833682]}}, {"type": "Feature", "properties": {"norad_id": 29494, "name": "DIRECTV 9S", "group": "intelsat", "lat": 0.8261914245773926, "lon": 107.17278486573541, "alt_km": 35797.832943370406, "timestamp": "2025-12-23T07:45:09.064190+00:00", "meta": {"OBJECT_NAME": "DIRECTV 9S", "OBJECT_ID": "2006-043A", "EPOCH": "2025-12-22T14:23:47.349312", "MEAN_MOTION": 1.00272238, "ECCENTRICITY": 0.00028786, "INCLINATION": 1.964, "RA_OF_ASC_NODE": 83.1086, "ARG_OF_PERICENTER": 193.1253, "MEAN_ANOMALY": 289.9086, "EPHEMERIS_TYPE": 0, "CLASSIFICATION_TYPE": "U", "NORAD_CAT_ID": 29494, "ELEMENT_SET_NO": 999, "REV_AT_EPOCH": 4961, "BSTAR": 0, "MEAN_MOTION_DOT": -9.3e-07, "MEAN_MOTION_DDOT": 0}, "tle": {"line1": "1 29494U 06043A   25356.59985358 -.00000093  00000+0  00000+0 0  9995", "line2": "2 29494   1.9640  83.1086 0002878 193.1253 289.9086  1.00272238 49612"}}, "geometry": {"type": "Point", "coordinates": [107.17278486573541, 0.8261914245773926]}}, {"type": "Feature", "properties": {"norad_id": 31307, "name": "GALAXY 17 (G-17)", "group": "intelsat", "lat": 1.685508356456342, "lon": 123.33673945754958, "alt_km": 35801.1791378779, "timestamp": "2025-12-23T07:45:09.064202+00:00", "meta": {"OBJECT_NAME": "GALAXY 17 (G-17)", "OBJECT_ID": "2007-016B", "EPOCH": "2025-12-22T21:19:15.066912", "MEAN_MOTION": 1.00269711, "ECCENTRICITY": 0.00053352, "INCLINATION": 2.5239, "RA_OF_ASC_NODE": 82.1716, "ARG_OF_PERICENTER": 171.6525, "MEAN_ANOMALY": 72.6914, "EPHEMERIS_TYPE": 0, "CLASSIFICATION_TYPE": "U", "NORAD_CAT_ID": 31307, "ELEMENT_SET_NO": 999, "REV_AT_EPOCH": 6803, "BSTAR": 0, "MEAN_MOTION_DOT": -1.86e-06, "MEAN_MOTION_DDOT": 0}, "tle": {"line1": "1 31307U 07016B   25356.88836883 -.00000186  00000+0  00000+0 0  9995", "line2": "2 31307   2.5239  82.1716 0005335 171.6525  72.6914  1.00269711 68038"}}, "geometry": {"type": "Point", "coordinates": [123.33673945754958, 1.685508356456342]}}, {"type": "Feature", "properties": {"norad_id": 31862, "name": "DIRECTV 10", "group": "intelsat", "lat": 0.005962769172014975, "lon": 105.60487853122741, "alt_km": 35785.847776928545, "timestamp": "2025-12-23T07:45:09.064214+00:00", "meta": {"OBJECT_NAME": "DIRECTV 10", "OBJECT_ID": "2007-032A", "EPOCH": "2025-12-22T14:23:17.397024", "MEAN_MOTION": 1.00274167, "ECCENTRICITY": 2.112e-05, "INCLINATION": 0.0071, "RA_OF_ASC_NODE": 104.9786, "ARG_OF_PERICENTER": 118.9337, "MEAN_ANOMALY": 340.5167, "EPHEMERIS_TYPE": 0, "CLASSIFICATION_TYPE": "U", "NORAD_CAT_ID": 31862, "ELEMENT_SET_NO": 999, "REV_AT_EPOCH": 4382, "BSTAR": 0, "MEAN_MOTION_DOT": -8.2e-07, "MEAN_MOTION_DDOT": 0}, "tle": {"line1": "1 31862U 07032A   25356.59950691 -.00000082  00000+0  00000+0 0  9996", "line2": "2 31862   0.0071 104.9786 0000211 118.9337 340.5167  1.00274167 43822"}}, "geometry": {"type": "Point", "coordinates": [105.60487853122741, 0.005962769172014975]}}, {"type": "Feature", "properties": {"norad_id": 32253, "name": "INTELSAT 11 (IS-11)", "group": "intelsat", "lat": -2.482515431739877, "lon": 27.67057827633848, "alt_km": 36158.08517572635, "timestamp": "2025-12-23T07:45:09.064225+00:00", "meta": {"OBJECT_NAME": "INTELSAT 11 (IS-11)", "OBJECT_ID": "2007-044B", "EPOCH": "2025-12-22T19:09:49.960224", "MEAN_MOTION": 0.99052824, "ECCENTRICITY": 0.0008553, "INCLINATION": 3.1047, "RA_OF_ASC_NODE": 80.8652, "ARG_OF_PERICENTER": 169.9478, "MEAN_ANOMALY": 309.7083, "EPHEMERIS_TYPE": 0, "CLASSIFICATION_TYPE": "U", "NORAD_CAT_ID": 32253, "ELEMENT_SET_NO": 999, "REV_AT_EPOCH": 6670, "BSTAR": 0, "MEAN_MOTION_DOT": -1.28e-06, "MEAN_MOTION_DDOT": 0}, "tle": {"line1": "1 32253U 07044B   25356.79849491 -.00000128  00000+0  00000+0 0  9992", "line2": "2 32253   3.1047  80.8652 0008553 169.9478 309.7083  0.99052824 66704"}}, "geometry": {"type": "Point", "coordinates": [27.67057827633848, -2.482515431739877]}}, {"type": "Feature", "properties": {"norad_id": 32388, "name": "HORIZONS-2", "group": "intelsat", "lat": 1.706404006085539, "lon": 134.5575146298809, "alt_km": 35802.08680277492, "timestamp": "2025-12-23T07:45:09.064237+00:00", "meta": {"OBJECT_NAME": "HORIZONS-2", "OBJECT_ID": "2007-063B", "EPOCH": "2025-12-22T21:22:29.757216", "MEAN_MOTION": 1.00270659, "ECCENTRICITY": 0.0004651, "INCLINATION": 2.1464, "RA_OF_ASC_NODE": 82.8521, "ARG_OF_PERICENTER": 195.4042, "MEAN_ANOMALY": 60.2691, "EPHEMERIS_TYPE": 0, "CLASSIFICATION_TYPE": "U", "NORAD_CAT_ID": 32388, "ELEMENT_SET_NO": 999, "REV_AT_EPOCH": 6604, "BSTAR": 0, "MEAN_MOTION_DOT": -2.33e-06, "MEAN_MOTION_DDOT": 0}, "tle": {"line1": "1 32388U 07063B   25356.89062219 -.00000233  00000+0  00000+0 0  9995", "line2": "2 32388   2.1464  82.8521 0004651 195.4042  60.2691  1.00270659 66040"}}, "geometry": {"type": "Point", "coordinates": [134.5575146298809, 1.706404006085539]}}, {"type": "Feature", "properties": {"norad_id": 32729, "name": "DIRECTV 11", "group": "intelsat", "lat": 0.012470406731654, "lon": 109.16916737765763, "alt_km": 35785.63246686995, "timestamp": "2025-12-23T07:45:09.064248+00:00", "meta": {"OBJECT_NAME": "DIRECTV 11", "OBJECT_ID": "2008-013A", "EPOCH": "2025-12-21T16:09:00.789984", "MEAN_MOTION": 1.00267418, "ECCENTRICITY": 8.567e-05, "INCLINATION": 0.0458, "RA_OF_ASC_NODE": 200.3144, "ARG_OF_PERICENTER": 330.5483, "MEAN_ANOMALY": 62.6867, "EPHEMERIS_TYPE": 0, "CLASSIFICATION_TYPE": "U", "NORAD_CAT_ID": 32729, "ELEMENT_SET_NO": 999, "REV_AT_EPOCH": 4381, "BSTAR": 0, "MEAN_MOTION_DOT": -1.03e-06, "MEAN_MOTION_DDOT": 0}, "tle": {"line1": "1 32729U 08013A   25355.67292581 -.00000103  00000+0  00000+0 0  9998", "line2": "2 32729   0.0458 200.3144 0000856 330.5483  62.6867  1.00267418 43811"}}, "geometry": {"type": "Point", "coordinates": [109.16916737765763, 0.012470406731654]}}, {"type": "Feature", "properties": {"norad_id": 32951, "name": "GALAXY 18 (G-18)", "group": "intelsat", "lat": 0.021333202254100774, "lon": 85.39284252744413, "alt_km": 35798.1312341909, "timestamp": "2025-12-23T07:45:09.064260+00:00", "meta": {"OBJECT_NAME": "GALAXY 18 (G-18)", "OBJECT_ID": "2008-024A", "EPOCH": "2025-12-22T17:42:58.277664", "MEAN_MOTION": 1.00271901, "ECCENTRICITY": 0.00029085, "INCLINATION": 0.018, "RA_OF_ASC_NODE": 293.7428, "ARG_OF_PERICENTER": 342.0585, "MEAN_ANOMALY": 318.4704, "EPHEMERIS_TYPE": 0, "CLASSIFICATION_TYPE": "U", "NORAD_CAT_ID": 32951, "ELEMENT_SET_NO": 999, "REV_AT_EPOCH": 4408, "BSTAR": 0, "MEAN_MOTION_DOT": 4.7e-07, "MEAN_MOTION_DDOT": 0}, "tle": {"line1": "1 32951U 08024A   25356.73817451  .00000047  00000+0  00000+0 0  9990", "line2": "2 32951   0.0180 293.7428 0002908 342.0585 318.4704  1.00271901 44086"}}, "geometry": {"type": "Point", "coordinates": [85.39284252744413, 0.021333202254100774]}}]}